MALLIGYONG-1            
1 58400U 23179A   24286.51076589  .00010672  00000+0  47942-3 0  9996
2 58400  97.3839 171.2991 0009371  34.6938 325.4907 15.21290459 49563
